[{"OBJECT_NAME":"STARLINK-4041","OBJECT_ID":"2022-053AR","EPOCH":"2026-03-09T11:47:11.103936","MEAN_MOTION":15.08841015,"ECCENTRICITY":7.33e-5,"INCLINATION":53.2172,"RA_OF_ASC_NODE":149.8112,"ARG_OF_PERICENTER":53.5314,"MEAN_ANOMALY":306.5745,"EPHEMERIS_TYPE":0,"CLASSIFICATION_TYPE":"U","NORAD_CAT_ID":52695,"ELEMENT_SET_NO":999,"REV_AT_EPOCH":21106,"BSTAR":-2.1920007e-5,"MEAN_MOTION_DOT":-6.36e-6,"MEAN_MOTION_DDOT":0},{"OBJECT_NAME":"CZ-6A DEB","OBJECT_ID":"2024-140KH","EPOCH":"2026-03-09T14:59:57.464160","MEAN_MOTION":15.05079233,"ECCENTRICITY":0.0091207,"INCLINATION":89.0655,"RA_OF_ASC_NODE":284.096,"ARG_OF_PERICENTER":124.4022,"MEAN_ANOMALY":236.5882,"EPHEMERIS_TYPE":0,"CLASSIFICATION_TYPE":"U","NORAD_CAT_ID":60878,"ELEMENT_SET_NO":999,"REV_AT_EPOCH":8457,"BSTAR":0.0027733,"MEAN_MOTION_DOT":0.00043481,"MEAN_MOTION_DDOT":0}]
